[Satellite]
VERSION=1.1
NAME=YAOGAN 6
NICKNAME=YAOGAN 6
TLE1=1 34839U 09021A   15055.48036506  .00004108  00000-0  17920-3 0  9992
TLE2=2 34839  97.2563 127.5214 0032845  65.8240  30.1710 15.22212517324054
